{
  "type": "FeatureCollection",
  "features": [
    {
      "type": "Feature",
      "properties": {
        "norad_id": 30334,
        "name": "FENGYUN 1C DEB",
        "group": "fengyun-1c-debris",
        "lat": -71.29261994672059,
        "lon": 107.9631566677729,
        "alt_km": 896.184814851892,
        "timestamp": "2025-12-06T05:40:09.517526+00:00",
        "meta_object_name": "FENGYUN 1C DEB",
        "meta_object_id": "1999-025AAV",
        "meta_epoch": "2025-12-03T05:52:50.700000",
        "meta_mean_motion": 13.92330154,
        "meta_eccentricity": 0.0144841,
        "meta_inclination": 99.0214,
        "meta_ra_of_asc_node": 77.0715,
        "meta_arg_of_pericenter": 8.1013,
        "meta_mean_anomaly": 55.0559,
        "meta_ephemeris_type": 0,
        "meta_classification_type": "U",
        "meta_norad_cat_id": 30334,
        "meta_element_set_no": 999,
        "meta_rev_at_epoch": 95089,
        "meta_bstar": 0.0015203,
        "meta_mean_motion_dot": 2.085e-05,
        "meta_mean_motion_ddot": 0,
        "tle_line1": "1 30334U 99025AAV 25337.24503125  .00002085  00000+0  15203-2 0  9997",
        "tle_line2": "2 30334  99.0214  77.0715 0144841   8.1013  55.0559 13.92330154950893"
      },
      "geometry": {
        "type": "Point",
        "coordinates": [
          107.9631566677729,
          -71.29261994672059
        ]
      }
    },
    {
      "type": "Feature",
      "properties": {
        "norad_id": 30335,
        "name": "FENGYUN 1C DEB",
        "group": "fengyun-1c-debris",
        "lat": -69.44933854660312,
        "lon": -3.588926667072494,
        "alt_km": 968.4149034750799,
        "timestamp": "2025-12-06T05:40:09.517536+00:00",
        "meta_object_name": "FENGYUN 1C DEB",
        "meta_object_id": "1999-025AAW",
        "meta_epoch": "2025-12-04T23:28:05.864160",
        "meta_mean_motion": 14.01357038,
        "meta_eccentricity": 0.013246,
        "meta_inclination": 98.9049,
        "meta_ra_of_asc_node": 330.462,
        "meta_arg_of_pericenter": 153.1545,
        "meta_mean_anomaly": 269.609,
        "meta_ephemeris_type": 0,
        "meta_classification_type": "U",
        "meta_norad_cat_id": 30335,
        "meta_element_set_no": 999,
        "meta_rev_at_epoch": 96482,
        "meta_bstar": 0.00022373,
        "meta_mean_motion_dot": 3.22e-06,
        "meta_mean_motion_ddot": 0,
        "tle_line1": "1 30335U 99025AAW 25338.97784565  .00000322  00000+0  22373-3 0  9997",
        "tle_line2": "2 30335  98.9049 330.4620 0132460 153.1545 269.6090 14.01357038964826"
      },
      "geometry": {
        "type": "Point",
        "coordinates": [
          -3.588926667072494,
          -69.44933854660312
        ]
      }
    },
    {
      "type": "Feature",
      "properties": {
        "norad_id": 30336,
        "name": "FENGYUN 1C DEB",
        "group": "fengyun-1c-debris",
        "lat": 71.35446718833607,
        "lon": -25.27538039637798,
        "alt_km": 798.8461266377235,
        "timestamp": "2025-12-06T05:40:09.517547+00:00",
        "meta_object_name": "FENGYUN 1C DEB",
        "meta_object_id": "1999-025AAX",
        "meta_epoch": "2025-12-05T07:24:10.690848",
        "meta_mean_motion": 14.19288741,
        "meta_eccentricity": 0.00439326,
        "meta_inclination": 98.6012,
        "meta_ra_of_asc_node": 0.4752,
        "meta_arg_of_pericenter": 29.9215,
        "meta_mean_anomaly": 345.4622,
        "meta_ephemeris_type": 0,
        "meta_classification_type": "U",
        "meta_norad_cat_id": 30336,
        "meta_element_set_no": 999,
        "meta_rev_at_epoch": 97497,
        "meta_bstar": 0.0005798653,
        "meta_mean_motion_dot": 1.186e-05,
        "meta_mean_motion_ddot": 0,
        "tle_line1": "1 30336U 99025AAX 25339.30845707  .00001186  00000+0  57987-3 0  9990",
        "tle_line2": "2 30336  98.6012   0.4752 0043932  29.9215 345.4622 14.19288741974977"
      },
      "geometry": {
        "type": "Point",
        "coordinates": [
          -25.27538039637798,
          71.35446718833607
        ]
      }
    },
    {
      "type": "Feature",
      "properties": {
        "norad_id": 30338,
        "name": "FENGYUN 1C DEB",
        "group": "fengyun-1c-debris",
        "lat": 24.974740048521937,
        "lon": -126.08688109409005,
        "alt_km": 630.0419137489525,
        "timestamp": "2025-12-06T05:40:09.517557+00:00",
        "meta_object_name": "FENGYUN 1C DEB",
        "meta_object_id": "1999-025AAZ",
        "meta_epoch": "2025-12-05T04:10:52.646880",
        "meta_mean_motion": 14.47369738,
        "meta_eccentricity": 0.02721089,
        "meta_inclination": 98.4602,
        "meta_ra_of_asc_node": 48.8748,
        "meta_arg_of_pericenter": 216.8927,
        "meta_mean_anomaly": 169.961,
        "meta_ephemeris_type": 0,
        "meta_classification_type": "U",
        "meta_norad_cat_id": 30338,
        "meta_element_set_no": 999,
        "meta_rev_at_epoch": 98035,
        "meta_bstar": 0.0023703162,
        "meta_mean_motion_dot": 0.00013827,
        "meta_mean_motion_ddot": 0,
        "tle_line1": "1 30338U 99025AAZ 25339.17422045  .00013827  00000+0  23703-2 0  9996",
        "tle_line2": "2 30338  98.4602  48.8748 0272108 216.8927 169.9610 14.47369738980351"
      },
      "geometry": {
        "type": "Point",
        "coordinates": [
          -126.08688109409005,
          24.974740048521937
        ]
      }
    },
    {
      "type": "Feature",
      "properties": {
        "norad_id": 30339,
        "name": "FENGYUN 1C DEB",
        "group": "fengyun-1c-debris",
        "lat": -59.13980750874286,
        "lon": -108.95900146094532,
        "alt_km": 783.2752568845717,
        "timestamp": "2025-12-06T05:40:09.517567+00:00",
        "meta_object_name": "FENGYUN 1C DEB",
        "meta_object_id": "1999-025ABA",
        "meta_epoch": "2025-12-05T07:09:37.971360",
        "meta_mean_motion": 14.37980279,
        "meta_eccentricity": 0.00217919,
        "meta_inclination": 98.9751,
        "meta_ra_of_asc_node": 85.3982,
        "meta_arg_of_pericenter": 107.4285,
        "meta_mean_anomaly": 320.3198,
        "meta_ephemeris_type": 0,
        "meta_classification_type": "U",
        "meta_norad_cat_id": 30339,
        "meta_element_set_no": 999,
        "meta_rev_at_epoch": 97320,
        "meta_bstar": 0.0052981213,
        "meta_mean_motion_dot": 0.00016052,
        "meta_mean_motion_ddot": 0,
        "tle_line1": "1 30339U 99025ABA 25339.29835615  .00016052  00000+0  52981-2 0  9994",
        "tle_line2": "2 30339  98.9751  85.3982 0021791 107.4285 320.3198 14.37980279973208"
      },
      "geometry": {
        "type": "Point",
        "coordinates": [
          -108.95900146094532,
          -59.13980750874286
        ]
      }
    },
    {
      "type": "Feature",
      "properties": {
        "norad_id": 30340,
        "name": "FENGYUN 1C DEB",
        "group": "fengyun-1c-debris",
        "lat": 10.264937183592972,
        "lon": -141.33873600940197,
        "alt_km": 777.8063195810519,
        "timestamp": "2025-12-06T05:40:09.517578+00:00",
        "meta_object_name": "FENGYUN 1C DEB",
        "meta_object_id": "1999-025ABB",
        "meta_epoch": "2025-12-05T01:50:38.227776",
        "meta_mean_motion": 14.04593974,
        "meta_eccentricity": 0.01459113,
        "meta_inclination": 99.0025,
        "meta_ra_of_asc_node": 35.8663,
        "meta_arg_of_pericenter": 156.0644,
        "meta_mean_anomaly": 273.6813,
        "meta_ephemeris_type": 0,
        "meta_classification_type": "U",
        "meta_norad_cat_id": 30340,
        "meta_element_set_no": 999,
        "meta_rev_at_epoch": 96673,
        "meta_bstar": 9.6062346e-05,
        "meta_mean_motion_dot": 1.25e-06,
        "meta_mean_motion_ddot": 0,
        "tle_line1": "1 30340U 99025ABB 25339.07683134  .00000125  00000+0  96062-4 0  9993",
        "tle_line2": "2 30340  99.0025  35.8663 0145911 156.0644 273.6813 14.04593974966732"
      },
      "geometry": {
        "type": "Point",
        "coordinates": [
          -141.33873600940197,
          10.264937183592972
        ]
      }
    },
    {
      "type": "Feature",
      "properties": {
        "norad_id": 30341,
        "name": "FENGYUN 1C DEB",
        "group": "fengyun-1c-debris",
        "lat": 46.48172121951106,
        "lon": -142.0030412508308,
        "alt_km": 743.2142749632558,
        "timestamp": "2025-12-06T05:40:09.517588+00:00",
        "meta_object_name": "FENGYUN 1C DEB",
        "meta_object_id": "1999-025ABC",
        "meta_epoch": "2025-12-04T05:26:49.380288",
        "meta_mean_motion": 14.33875673,
        "meta_eccentricity": 0.0049405,
        "meta_inclination": 99.2197,
        "meta_ra_of_asc_node": 225.7055,
        "meta_arg_of_pericenter": 81.3316,
        "meta_mean_anomaly": 40.1191,
        "meta_ephemeris_type": 0,
        "meta_classification_type": "U",
        "meta_norad_cat_id": 30341,
        "meta_element_set_no": 999,
        "meta_rev_at_epoch": 96959,
        "meta_bstar": 0.0070307,
        "meta_mean_motion_dot": 0.00019858,
        "meta_mean_motion_ddot": 0,
        "tle_line1": "1 30341U 99025ABC 25338.22696042  .00019858  00000+0  70307-2 0  9997",
        "tle_line2": "2 30341  99.2197 225.7055 0049405  81.3316  40.1191 14.33875673969591"
      },
      "geometry": {
        "type": "Point",
        "coordinates": [
          -142.0030412508308,
          46.48172121951106
        ]
      }
    }
  ]
}